id,name,description,website,address,city,country,latitude,longitude,banner_url,opening_hours,owner_id,created_at,updated_at
1a5d6bcd-bbfd-4b2d-9b5d-ab8dfbbd4be5,Titanic (Pitbull Vienna),"Historic gay club established in 1982, especially popular with bears, leather lovers, and butch aesthetics. Underground club specializing in masculine-themed parties with bold, unapologetic atmosphere and body-positive environment.",https://titanic.at,Theobaldgasse 11,Vienna,Austria,48.1956,16.3545,,,,2025-12-09T10:00:00Z,2025-12-09T10:00:00Z
1a6d6bcd-bbfd-4b2d-9b5d-ab8dfbbd4be6,Mango Bar,"Popular gay bar in Naschmarkt district, operating since 1981. Known for regular events, drink specials, young lively crowd, private outdoor space, and designated smoking area. Hosts themed nights and DJ events.",,Laimgrubengasse 3,Vienna,Austria,48.1985,16.3598,,,,2025-12-09T10:00:00Z,2025-12-09T10:00:00Z
1a8d6bcd-bbfd-4b2d-9b5d-ab8dfbbd4be8,Rosa Lila Villa,"Iconic LGBTQ+ community center and cornerstone for lesbian visibility since 1982. Historic painted building serving as cultural and political hub for queer activism, safe spaces, and community events. Houses multiple organizations including Villa Vida café.",https://dievilla.at,Linke Wienzeile 102,Vienna,Austria,48.1956,16.3556,,,,2025-12-09T10:00:00Z,2025-12-09T10:00:00Z
6c9e4501-bf18-44a1-9bb1-169c5880824b,Vorspiel,"Cozy and intimate LGBTQ+ cocktail bar in Vienna's Neubau district. Known for friendly atmosphere, creative drink menu, and perfect spot for relaxed evenings or casual date nights.",,"Kaiserstraße 57, 1070 Wien",Vienna,Austria,48.205,16.35,,,,2025-12-09T10:00:00Z,2025-12-09T10:00:00Z
0227fc89-a967-43e5-b33d-1889301572cd,Augenblick,"LGBT-friendly café-bar with mixed clientele in a traditional historical 19th-century building. Run by former Cheri owners, features beautiful terrace, game evenings, and vernissages.",https://www.augenblick-1070.at,"Schottenfeldgasse 92, 1070 Wien",Vienna,Austria,48.202,16.348,,"Mon-Sat 15:00-24:00, Sun closed",,2025-12-09T10:00:00Z,2025-12-09T10:00:00Z
0e65cf62-c181-496c-bfd0-c54bf3935cff,Café Rifugio,"Small friendly gay café bar beloved by Vienna's mature local crowd. Features warm atmosphere, delicious affordable wine, and daily happy hour with specially priced drink of the day.",https://www.cafe-rifugio.at,"Schönbrunner Straße 10, 1050 Wien",Vienna,Austria,48.192,16.358,,"Daily 10:00-22:00, Happy Hour 15:00-20:00",,2025-12-09T10:00:00Z,2025-12-09T10:00:00Z
3bef74ca-5467-4e62-a01e-cb30e979ca55,The Hive,"Renovated and redesigned successor to Red Carpet bar. Largest queer pub in the district featuring dance floor in cellar, brand-new outdoor area, coffees, cocktails, and Austrian cuisine until 21:00.",https://www.the-hive.at,"Magdalenenstraße 2, 1060 Wien",Vienna,Austria,48.1985,16.3545,,"Sun-Thu 17:00-02:00, Fri-Sat 17:00-04:00, Club Sat 23:00-04:00",,2025-12-09T10:00:00Z,2025-12-09T10:00:00Z
03146daf-3d4d-4a53-8c7c-ef63646b136a,Palmenhaus,"Gay-friendly brasserie, café and bar housed in a stunning Jugendstil glasshouse (former imperial greenhouse from 1822) in the Burggarten. Features 15-meter high ceilings, exotic plants, and Friday DJ sets.",https://www.palmenhaus.at,"Burggarten 1, 1010 Wien",Vienna,Austria,48.204,16.367,,"Mon-Fri 10:00-23:00, Sat-Sun 09:00-23:00, Kitchen until 21:30",,2025-12-09T10:00:00Z,2025-12-09T10:00:00Z
50c8bb9e-66c5-4ab1-85c2-d3d57541dcbb,Café Savoy,"Historic gay-friendly Viennese coffeehouse dating back to imperial times on Naschmarkt. Features Europe's largest mirrors outside Versailles, baroque decor, and pleasant outdoor terrace.",https://www.cafe-savoy.at,"Linke Wienzeile 36, 1060 Wien",Vienna,Austria,48.1985,16.36,,,,2025-12-09T10:00:00Z,2025-12-09T10:00:00Z
9b092db9-6640-4d6f-b622-bf8ee4337154,Café Willendorf,"Queer community café and restaurant at the Türkis Rosa Lila Villa. Offers tasty cakes from Fett+Zucker, vegetarian-heavy lunch and dinner menus, cocktails, and famous Queen's Brunch with drag performances on Sundays.",https://www.cafe-willendorf.at,"Linke Wienzeile 102, 1060 Wien",Vienna,Austria,48.1956,16.3556,,Queen's Brunch on Sundays,,2025-12-09T10:00:00Z,2025-12-09T10:00:00Z
277036b8-3a19-495b-bafc-d12744931ba3,Café Rüdiger,Gay bar and café operating Friday and Saturday nights from midnight. Known for welcoming atmosphere and regular gay events in Vienna's 5th district.,http://caferüdiger.at,"Rüdigergasse 14, 1050 Wien",Vienna,Austria,48.188,16.362,,Fri-Sat from midnight,,2025-12-09T10:00:00Z,2025-12-09T10:00:00Z
b0c613d7-2092-42b5-bc94-a0f5d0e9a188,Vienna Schick Bar,"Cozy gay-friendly bar with relaxed atmosphere under new management. Features diverse mixed crowd, private parties, special events, dog-friendly lounge, and art gallery vibes. Located in Wieden district.",,"Schikanedergasse 5, 1040 Wien",Vienna,Austria,48.193,16.37,,"Mon-Thu 19:30-00:00, Fri-Sat 19:30-02:00",,2025-12-09T10:00:00Z,2025-12-09T10:00:00Z
b1689a7b-e33b-4ff1-ae1b-2d628b85abea,F56 - FFIFTYSIX,"Vienna's largest gay cruising and fetish bar on 300m² with 'We Are Sex' motto. Features large bar, smoking/non-smoking areas, darkroom, glory hole, gang-bang platform, cabins, slings, gyn chairs, rinsing facilities. Strict dresscode on themed nights.",https://www.f56.at,"Florianigasse 56, 1080 Wien",Vienna,Austria,48.213,16.343,,"Fri-Sat 21:00-04:00, Sun 19:00-03:00",,2025-12-09T10:00:00Z,2025-12-09T10:00:00Z
5c1ff5cf-01a3-453c-b7f6-04e5c2978030,Hard On Vienna,"Non-profit fetish club of LMC Vienna (Leather & Motorbike Community). Members-only playground for fetish-interested gay men, exclusively run by volunteers. Prior online registration required. Themed nights with specific dresscodes.",https://www.lmc-vienna.com/hard-on/,"Hamburgerstraße 4, 1050 Wien",Vienna,Austria,48.19,16.356,,"Fri-Sat 23:00-04:00, Sun 18:00-24:00 (entry until 02:00)",,2025-12-09T10:00:00Z,2025-12-09T10:00:00Z
6c60df1d-2a61-4bbb-9cff-d714f9b7aa69,Römersauna,"Vienna's most modern gay sauna since 2014 renovation. On 2 floors with Finnish sauna, steam bath, massage, 2 cruising areas, bar, restaurant, mini maze, sling room. Monthly Römerfest party and themed days (Hairy Tuesdays, XL Fridays). Ancient Rome decor.",https://roemersauna.at,"Rüdigergasse 2, 1050 Wien",Vienna,Austria,48.1885,16.3545,,"Mon-Thu 11:00-23:00, Fri 11:00-non-stop, Sat non-stop, Sun until 23:00",,2025-12-09T10:00:00Z,2025-12-09T10:00:00Z
fe984282-9117-49f3-9b8a-f12feb9ae77e,Apollo City Sauna,"Vienna's oldest gay sauna running since 1989 (29+ years). Popular with bears, butches, mature men. Features 2 floors on 370m², Finnish sauna, steam bath, swimming pool, bar & lounge, cruising area, sling, darkroom, private cabins. Saturday Diversity Day for couples.",http://www.apollosauna.at,"Wimbergergasse 34, 1070 Wien",Vienna,Austria,48.203,16.342,,Daily 14:00-02:00,,2025-12-09T10:00:00Z,2025-12-09T10:00:00Z
65cf60db-f899-412a-9861-e03ba899cf9e,Sportsauna,"Well-maintained air-conditioned gay sauna and steam room in the 8th district. Features free Wi-Fi, bar area with no entry fee. Known as one of Vienna's 4 main gay saunas.",,"Albertgasse 26, 1080 Wien",Vienna,Austria,48.212,16.345,,,,2025-12-09T10:00:00Z,2025-12-09T10:00:00Z
da5dfcff-f79c-41db-b7d9-713be798f8af,Kino-Labyrinth / Man for Man,"Vienna's largest gay cruising cinema and sex shop. Features cinema showing porn, cruising maze, cabins, and Sunday evening naked party. Admission €8.50-12. Located in Margareten district.",,"Hamburgerstraße 8, 1050 Wien",Vienna,Austria,48.1895,16.3555,,"Mon-Tue 11:00-21:00, Wed-Thu 11:00-22:00, Fri-Sat 11:00-23:00, Sun 14:00-23:00",,2025-12-09T10:00:00Z,2025-12-09T10:00:00Z
eb185635-129d-4af3-aa1b-c118a6c7cebd,Heaven Vienna,"One of Vienna's most glamorous queer event brands. Legendary LGBTQ+ parties with high production values, top DJs, spectacular drag performances, themed events. Attracts international fashion-forward crowd. Venues vary across Vienna's stylish locations.",,Various venues across Vienna,Vienna,Austria,48.2082,16.3738,,Event-based schedule,,2025-12-09T10:00:00Z,2025-12-09T10:00:00Z
0bbe4766-503a-4c16-aa30-6a7b716174b0,Kibbutz Klub,"Unforgettably gritty queer party series held in abandoned U-Bahn station. Known for Eurotrash and Israeli hits, wild atmosphere, and diverse crowd. One of Vienna's most unique underground LGBTQ+ party experiences.",,Various locations including abandoned U-Bahn stations,Vienna,Austria,48.2082,16.3738,,Event-based schedule,,2025-12-09T10:00:00Z,2025-12-09T10:00:00Z
e82258ac-0eb2-4c13-bfd2-a5c8947c31a7,Bar Italia,Italian bar and restaurant in Vienna. Requires additional research for detailed information.,,,Vienna,Austria,48.2082,16.3738,,,,2025-12-09T10:00:00Z,2025-12-09T10:00:00Z
d2ed36fe-6570-4a2e-b259-93d851f6ff05,Black Market,Club or bar venue in Vienna. Requires additional research for detailed information.,,,Vienna,Austria,48.2082,16.3738,,,,2025-12-09T10:00:00Z,2025-12-09T10:00:00Z
5d703402-bc63-4d4e-820a-6934394a79dd,Camera Club,Club venue in Vienna. Requires additional research for detailed information.,,,Vienna,Austria,48.2082,16.3738,,,,2025-12-09T10:00:00Z,2025-12-09T10:00:00Z
9a91febb-1bb4-4ee4-9420-c2cbd1824c01,Cella Vie Club,Club venue in Vienna. Requires additional research for detailed information.,,,Vienna,Austria,48.2082,16.3738,,,,2025-12-09T10:00:00Z,2025-12-09T10:00:00Z
159c57a1-5a06-4925-a941-6acaf9c78cd0,Celeste,Bar or club venue in Vienna. Requires additional research for detailed information.,,,Vienna,Austria,48.2082,16.3738,,,,2025-12-09T10:00:00Z,2025-12-09T10:00:00Z
00767876-dfae-4d48-9f5c-b48c9dea208e,Champions Sports Bar,Sports bar venue in Vienna. Requires additional research for detailed information.,,,Vienna,Austria,48.2082,16.3738,,,,2025-12-09T10:00:00Z,2025-12-09T10:00:00Z
c7eb776f-0dab-42d5-9733-b5c0d42ab9ae,Chaya Fuera,Bar or club venue in Vienna. Requires additional research for detailed information.,,,Vienna,Austria,48.2082,16.3738,,,,2025-12-09T10:00:00Z,2025-12-09T10:00:00Z
3fed48e9-234f-479e-b3eb-355ce0ad1c61,Club 1019,Club venue in Vienna. Requires additional research for detailed information.,,,Vienna,Austria,48.2082,16.3738,,,,2025-12-09T10:00:00Z,2025-12-09T10:00:00Z
0c34ce8c-6916-4ab1-846f-623507e73d85,Club Porgy & Bess,"Jazz and music club in Innere Stadt, one of the top ten jazz clubs in Europe. Features diverse program with live music daily. Office hours for tickets Monday-Friday 10:00-15:00.",https://www.porgy.at,Riemergasse 11,Vienna,Austria,48.2089,16.3789,,"Mon-Thu 16:00-00:00, Fri 16:00-02:00, Sat 17:00-02:00, Sun 17:00-00:00",,2025-12-09T10:00:00Z,2025-12-09T10:00:00Z
f11b5e21-d3b3-4a04-8e2b-422445361362,Club U,Small student-favourite bar-club in Otto Wagner Pavilion Art Nouveau building at Karlsplatz. Wide range of events with music from Soul to Hip-Hop and Techno. Features wonderful outdoor seating area with regular DJs.,https://club-u.at,"Karlsplatz, K�nstlerhauspassage",Vienna,Austria,48.2007,16.3723,,"Mon-Wed 09:00-01:00, Thu-Sun 09:00-04:00",,2025-12-09T10:00:00Z,2025-12-09T10:00:00Z
0be2d3ac-7852-4c48-9b7f-e8ceda3408c9,Club Village,Club venue in Vienna. Requires additional research for detailed information.,,,Vienna,Austria,48.2082,16.3738,,,,2025-12-09T10:00:00Z,2025-12-09T10:00:00Z
57452413-ed41-4d3c-bf67-a4b381ccf0ed,Club X,Club venue in Vienna. Requires additional research for detailed information.,,,Vienna,Austria,48.2082,16.3738,,,,2025-12-09T10:00:00Z,2025-12-09T10:00:00Z
a10a8800-a5e2-499f-993b-5e3901696e87,Club Schwarzenberg (now Inc.),"Hip-hop club located at Schwarzenbergplatz, formerly known as Club Schwarzenberg. Part of the Horst Group. Features electronic and hip-hop music across multiple floors with regular DJ events and themed parties.",https://www.inc.wien,Schwarzenbergplatz 7,Vienna,Austria,48.1995,16.3767,,"Tue 23:00-06:00, Thu-Sat 23:00-06:00, Closed Wed, Sun, Mon",,2025-12-09T10:00:00Z,2025-12-09T10:00:00Z
3d8ec1f5-7c91-434e-aacd-94883eebd051,Danz�n,Bar or club venue in Vienna. Requires additional research for detailed information.,,,Vienna,Austria,48.2082,16.3738,,,,2025-12-09T10:00:00Z,2025-12-09T10:00:00Z
d8a8eb93-d827-4fb2-9b0e-eabea62f8bcf,DonauTechno,Techno venue in Vienna. Requires additional research for detailed information.,,,Vienna,Austria,48.2082,16.3738,,,,2025-12-09T10:00:00Z,2025-12-09T10:00:00Z
a4f8de56-87d8-4d55-be8c-9e0eb1f3fdd4,Eden Bar,Bar venue in Vienna. Requires additional research for detailed information.,,,Vienna,Austria,48.2082,16.3738,,,,2025-12-09T10:00:00Z,2025-12-09T10:00:00Z
2e597867-b38d-4f6e-9ccd-845867395e64,Elektro G�nner,Electronic music venue in Vienna. Requires additional research for detailed information.,,,Vienna,Austria,48.2082,16.3738,,,,2025-12-09T10:00:00Z,2025-12-09T10:00:00Z
fa094d5f-c612-4dc3-b376-229fcc674118,Exil,Club or bar venue in Vienna. Requires additional research for detailed information.,,,Vienna,Austria,48.2082,16.3738,,,,2025-12-09T10:00:00Z,2025-12-09T10:00:00Z
83d3ea2a-98e0-4523-b386-b7024d534f4e,Fanialive,Live music venue in Vienna. Requires additional research for detailed information.,,,Vienna,Austria,48.2082,16.3738,,,,2025-12-09T10:00:00Z,2025-12-09T10:00:00Z
ffe258f8-ef5b-40ef-b174-d58d11411edd,First Floor,Bar or club venue in Vienna. Requires additional research for detailed information.,,,Vienna,Austria,48.2082,16.3738,,,,2025-12-09T10:00:00Z,2025-12-09T10:00:00Z
e77748ba-6542-40b2-aac3-faef6263b7db,Fitzcarraldo Speakeasy,Hidden speakeasy bar accessed via a vending machine in Neubaugasse. Features Art Deco furnishings with fanciful jungle plant wallpaper. Known for classic and signature cocktails expertly crafted by talented mixologists. Ages 21+ only.,https://www.fitzcarraldo-bar.com,Neubaugasse 38/1,Vienna,Austria,48.1989,16.3534,,"Tue-Thu 20:00-00:00, Fri-Sat 20:00-02:00, Sun-Mon Closed",,2025-12-09T10:00:00Z,2025-12-09T10:00:00Z
608c1d91-c97e-47c6-ba0c-18a29224cbf3,Flex Café,"Extended café area of the legendary Flex club, with its own well-frequented dance floor. Located in a disused metro tunnel by the Danube Canal. Part of one of Europe's best-known clubs.",https://flex.at,Augartenbrücke 1,Vienna,Austria,48.2269,16.3839,,"Tue 21:00-06:00, Thu-Sat 21:00-06:00, Closed Mon, Wed, Sun",,2025-12-09T10:00:00Z,2025-12-09T10:00:00Z
1065a0fa-bd37-4dcc-979d-8057520163a1,Flex Halle,"Main hall of the legendary Flex club, founded in 1990 and relocated to a disused metro tunnel by the Danube Canal in 1995. One of the best-known clubs in Europe, hosting concerts, club nights, and DJ performances.",https://flex.at,Augartenbrücke 1,Vienna,Austria,48.2269,16.3839,,Hours vary by event schedule,,2025-12-09T10:00:00Z,2025-12-09T10:00:00Z
e9528e96-9ed6-4467-96db-b2269fe3e656,Flucc,Established fixture on Vienna's nightlife and music scene with legendary program presenting national and international DJs. The aboveground Flucc serves as a café and cultural point. Located at Praterstern.,https://flucc.at,Praterstern 5,Vienna,Austria,48.2108,16.392,,Daily 18:00-04:00,,2025-12-09T10:00:00Z,2025-12-09T10:00:00Z
9d88912e-8ef5-422f-9a49-470f9556fa4b,Flucc Wanne,"Underground party space beneath Flucc, offering space for parties with national and international DJs. Part of Vienna's established nightlife scene at Praterstern.",https://flucc.at,Praterstern 5,Vienna,Austria,48.2108,16.392,,Daily 18:00-04:00,,2025-12-09T10:00:00Z,2025-12-09T10:00:00Z
62232e2b-9a35-4e98-a6a5-77311bce9810,Futuregarden,"Exciting art space mixing bar and club in Vienna's hip 6th district. Features affordable snacks, large selection of beers and spirits, exclusively Austrian wines. Hosts presentations by young artists including music, videos, vernissages and parties.",https://www.facebook.com/futuregarden,Schadekgasse 6,Vienna,Austria,48.1978,16.3512,,"Summer: Mon-Thu 17:00-02:00, Fri-Sat 17:00-04:00, Sun 19:00-01:00; Winter: Mon-Thu 18:00-02:00, Fri-Sat 18:00-04:00, Sun 19:00-01:00",,2025-12-09T10:00:00Z,2025-12-09T10:00:00Z
fc93edcf-5dd2-4f40-87af-817baa4ec5dc,G.Spot,Gay club venue located at Camera Club in Vienna's 7th district (Neubau). Operates on the first Friday of the month starting at 21:00. Part of Vienna's LGBTQ+ nightlife scene.,,Neubaugasse 2,Vienna,Austria,48.2014,16.3534,,First Friday of month from 21:00,,2025-12-09T10:00:00Z,2025-12-09T10:00:00Z
d2d3f91c-caba-4f30-b32f-d3df0365742f,Goodmann,"After-hours venue near Naschmarkt, opening when other establishments close. Functions as restaurant, bar and nightclub. Features two bars, dance floor, and lounge area. Serves Viennese, international and seasonal cuisine from 02:00-10:00.",https://goodmann.at,Rechte Wienzeile 23,Vienna,Austria,48.1978,16.3634,,"Wed-Sun from 03:00, Disco 02:00-10:00",,2025-12-09T10:00:00Z,2025-12-09T10:00:00Z
6c3dfe89-3256-4bba-8d3c-a5b89e116d75,Hades,"Bar-Café and cocktail bar located in Innere Stadt (1st district), Vienna's central district with high concentration of bars and clubs. Known for its urban nightlife atmosphere.",https://www.iamhades.at,Karlsplatz 5,Vienna,Austria,48.2007,16.3723,,,,2025-12-09T10:00:00Z,2025-12-09T10:00:00Z
eccbcefe-5738-4f2c-9b68-c213b94b17df,Half Moon Club,"Note: Half Moon Club is located in Salzburg, not Vienna. Major nightclub in Salzburg's historic old town featuring two floors with lounge and club areas. Open Friday and Saturday nights.",https://www.halfmoon.at,Gstättengasse 4-6,Salzburg,Austria,47.8011,13.0448,,Fri-Sat 22:00-05:00,,2025-12-09T10:00:00Z,2025-12-09T10:00:00Z
e8bd1312-5573-48ee-99ad-5c9fd15b3884,Heidi – Das Chalet am Ring,Champagne club in Vienna's first district featuring chalet-style décor. Opened March 2022. Located at Opernring with capacity for up to 500 people for exclusive events. Open primarily on weekend nights.,https://www.instagram.com/heidi.vienna,Opernring 11,Vienna,Austria,48.2018,16.3689,,Primarily Friday and Saturday nights,,2025-12-09T10:00:00Z,2025-12-09T10:00:00Z
07f59131-82ae-42a7-8be9-7642154e4847,Inc.,"Hip-hop club located at Schwarzenbergplatz, formerly known as Club Schwarzenberg. Part of the Horst Group. Features electronic and hip-hop music across multiple floors with regular DJ events and themed parties.",https://www.inc.wien,Schwarzenbergplatz 7,Vienna,Austria,48.1995,16.3767,,"Tue 23:00-06:00, Thu-Sat 23:00-06:00, Closed Wed, Sun, Mon",,2025-12-09T10:00:00Z,2025-12-09T10:00:00Z
1a93180a-b71c-4e3e-a23d-13cb8caeea69,Jazzland,Vienna's oldest jazz club in rustic cellar under Ruprechtskirche. Operating since 1972. Features live jazz performances in three sets from 21:00-01:00. Cash only venue with intimate atmosphere.,https://www.jazzland.at,Franz-Josefs-Kai 29,Vienna,Austria,48.2148,16.3747,,"Mon-Sat 19:00-04:00, Sun Closed",,2025-12-09T10:00:00Z,2025-12-09T10:00:00Z
6638e03e-c266-4dba-906d-6e4471d5bdca,Ken Club,"Vibrant roaming dance party event in Vienna drawing energetic crowds of young gays, lesbians, and friends. Features dynamic playlist spanning pop, trash, 80s, 90s, and house music. Venues and schedules vary by event.",https://www.kenclub.at,Various locations,Vienna,Austria,48.2082,16.3738,,"Event-based, check website",,2025-12-09T10:00:00Z,2025-12-09T10:00:00Z
22c9aba2-e5b8-47d0-8717-50eb07c1e323,Kleinod Stadtgarten,Exquisite dining and bar experience in beautiful garden setting at the entrance of Stadtpark in Vienna's city center. Features outdoor seating in scenic location with quality food and drinks.,https://kleinod-stadtgarten.wien,Johannesgasse 33,Vienna,Austria,48.2034,16.3789,,Daily 12:00-00:00,,2025-12-09T10:00:00Z,2025-12-09T10:00:00Z
775e0abd-9917-4c06-b70f-b10b00342ea7,Kramladen,"Leading venue in Vienna's underground music scene since 2015. Set within unique underground arches (U-Bahnbogen), featuring live concerts across various genres including electronic, rock, and indie music. Hosts thousands of alternative events.",https://www.kramladenvienna.at,U-Bahnbogen 39-40,Vienna,Austria,48.2189,16.3401,,"Mon-Tue 20:00-04:00, Wed-Sat 20:00-06:00",,2025-12-09T10:00:00Z,2025-12-09T10:00:00Z
6038054b-b1b9-4047-bb1c-fa85d0294f97,Krypt,Historic vaulted cellar bar with alleged past as semi-legal jazz club in the 1950s/1960s. Features speakeasy theme with hidden bar behind vending machine. Stylish modern cocktail bar with mystical glamour atmosphere.,https://www.krypt.bar,Wasagasse 17,Vienna,Austria,48.2178,16.3567,,"Wed-Sat 21:00-02:00, Sun-Tue Closed",,2025-12-09T10:00:00Z,2025-12-09T10:00:00Z
dd9e6d9c-5628-462b-a308-7c86a800a29d,Loco Bar,Lively bar in U-Bahn arches known for karaoke nights on Wednesdays. Features happy hour from 19:00-20:00 with special cocktail prices. Open daily with extended hours on weekends.,https://www.locobar.at,Währinger Gürtel 172-174,Vienna,Austria,48.2289,16.3567,,"Daily from 19:00, Sun-Thu until 04:00, Fri-Sat until 05:00",,2025-12-09T10:00:00Z,2025-12-09T10:00:00Z
abd1e60d-5be8-4c22-b923-9b90dcfacf3c,Loop,"Popular cocktail bar and meeting place for music lovers under the U6 subway (Thaliastrasse stop). Features live music, DJ sets, and cozy atmosphere. Part of Vienna's vibrant Gürtel nightlife scene with moderate prices.",https://loop.co.at,Lerchenfelder Gürtel 26-27,Vienna,Austria,48.2156,16.3423,,"Mon-Thu 19:00-02:00, Fri-Sat 19:00-04:00, Sun 19:00-01:00",,2025-12-09T10:00:00Z,2025-12-09T10:00:00Z
8522de33-1171-43b6-9706-6544e627b181,Luster,Popular cocktail bar in Mariahilf district (6th district) known for craft cocktails and cozy atmosphere. Features quality drinks in intimate setting with professional mixology.,https://www.luster.bar,Windmühlgasse 32,Vienna,Austria,48.1989,16.3512,,"Wed-Thu 18:00-00:00, Fri-Sat 18:00-02:00, Sun 18:00-00:00, Mon-Tue Closed",,2025-12-09T10:00:00Z,2025-12-09T10:00:00Z
39b49e5f-7bb5-4c80-ada3-b23c2f5ccc7d,Miles Smiles,Small jazz café in Josefstadt district (8th district) named after a Miles Davis album. No-frills jazz pub with live performances and cozy atmosphere. Note: smoking permitted inside.,https://miles-smiles.at,Langegasse 51,Vienna,Austria,48.2123,16.3512,,Open daily,,2025-12-09T10:00:00Z,2025-12-09T10:00:00Z
89307f3e-7f7b-4314-a451-21837e732ee7,Mon Ami,"Versatile café, bar and club featuring cocktails, DJ sets, and live acts in cozy living room atmosphere. Has 2 floors with smoking and non-smoking sections. Hosts diverse events including poetry slams, comedy shows, and occasional flea markets.",https://monami.at,Theobaldgasse 9,Vienna,Austria,48.1967,16.3545,,"Mon-Thu 17:00-02:00, Fri 17:00-03:00, Sat 15:00-03:00, Sun 15:00-02:00",,2025-12-09T10:00:00Z,2025-12-09T10:00:00Z
70404a68-8339-4430-af3f-d6623c519d57,Motto am Fluss,"Restaurant and bar along the Danube Canal offering views of the water. Serves international cuisine with Austrian focus. Features restaurant, bar, and café areas with different operating hours.",https://mottoamfluss.at,Franz-Josefs-Kai 2,Vienna,Austria,48.2148,16.3789,,"Restaurant: Mon-Sat 18:00-23:00, Sun 18:00-22:30; Bar: Sun-Thu 18:00-00:00, Fri-Sat 18:00-01:00; Café: Daily 08:00-00:00",,2025-12-09T10:00:00Z,2025-12-09T10:00:00Z
f1b79712-e528-4a4d-a4bc-838dc400d438,Needle Vinyl Club,"Vinyl record bar featuring blues, jazz and rock'n'roll music. Offers cocktails, wines, and spirits in cozy, intimate atmosphere. Has second location in 6th district.",https://www.needlevinylbar.com,Färbergasse 8,Vienna,Austria,48.2089,16.3723,,Daily 17:00-02:00,,2025-12-09T10:00:00Z,2025-12-09T10:00:00Z
c25c9644-28ae-41cc-bdd4-48b6de14f364,O - The Club,"Underground club in Albertina Passage next to State Opera, extending over 800m². Features three floors with different music: electronic/house/techno on Fridays, party hits from 90s and charts on Saturdays. Age restrictions: 19+ on Fridays, 21+ on Saturdays.",https://o-klub.at,Opernring/Operngasse,Vienna,Austria,48.2034,16.3689,,"Tue, Fri, Sat from 23:00",,2025-12-09T10:00:00Z,2025-12-09T10:00:00Z
06d2927f-17c7-4381-bc21-4a68b4ae074e,Pitbull Vienna,"Monthly gay dance party for bears, daddies and admirers held at Club Titanic. Operating since 2009. Features two floors, fetish cabin and darkroom. No dress code. Events typically Saturday from 22:00-06:00.",https://www.pitbull-clubbing.at,Theobaldgasse 11,Vienna,Austria,48.1956,16.3545,,Monthly Saturday events 22:00-06:00,,2025-12-09T10:00:00Z,2025-12-09T10:00:00Z
5d5d9b4f-fe40-4ecc-9f42-3400f42d8f57,Platzhirsch,Club and bar at Opernring in Vienna's first district. Features regular DJ nights and party events. Note: Some sources indicate potential closure - verify current status before visiting.,https://platzhirsch.wien,Opernring 11,Vienna,Austria,48.2018,16.3689,,Thu-Sat 22:00-06:00,,2025-12-09T10:00:00Z,2025-12-09T10:00:00Z
fcfa0860-16b8-4b42-8ff4-0d8d941b0125,Ponyhof,"Techno club/bar in 15th district featuring mix of bar and club atmospheres. Was known for super chill techno, electronic, hip hop, and soul music. Note: Club announced closure in July 2025 due to financial struggles - verify current status.",https://www.derponyhof.at,Sechshauserstraße 4,Vienna,Austria,48.1945,16.3423,,"Bar: 18:00, Club: Tue-Sat from 23:00",,2025-12-09T10:00:00Z,2025-12-09T10:00:00Z
1bf5e177-5c55-47cb-916f-03739e3eae39,Praterstrasse,"Pizzeria, club and bar in one venue at former TV station location. Features electronic music with clear focus on techno. Located in Leopoldstadt district.",https://www.praterstrasse.wien,Praterstraße 18,Vienna,Austria,48.2156,16.3889,,"Wed-Sat 18:00-00:00, Sun-Tue Closed",,2025-12-09T10:00:00Z,2025-12-09T10:00:00Z
2bccced9-e533-41ed-9d17-9431473072e3,PRST,Electronic music venue (also known as Praterstrasse club) in Leopoldstadt district near Nestroyplatz. Features themed nights and DJ performances in underground arches atmosphere.,https://app.praterstrasse.wien,Aspernbrückengasse 2,Vienna,Austria,48.2156,16.3889,,Late evening until early hours,,2025-12-09T10:00:00Z,2025-12-09T10:00:00Z
f5d2fc5d-a60c-4b8e-adff-a866a7025b11,Puff,Bar housed in former brothel in Mariahilf district near Museumsquartier. Features unique atmosphere with LED lighting and vintage cocktail machines. Known for quality cocktails and eclectic decor.,https://puff-bar.at,Girardigasse 10,Vienna,Austria,48.1989,16.3512,,"Mon-Thu 16:00-02:00, Fri-Sat 16:00-04:00, Sun Closed",,2025-12-09T10:00:00Z,2025-12-09T10:00:00Z
9a0f641d-3ec5-4277-b4bb-b0ebb9eb2ebb,Purple Club Vienna,"Premier club and event venue in downtown Vienna offering unique events, top-tier gastronomy, and breathtaking atmosphere. Suitable for private parties, corporate events, and weekly club nights.",https://www.purpleclub.at,Krugerstraße 6,Vienna,Austria,48.2089,16.3723,,Check website for event schedule,,2025-12-09T10:00:00Z,2025-12-09T10:00:00Z
7fb2c3f1-ab2b-4730-935a-1788fead4fb3,Queer:beat,"Vienna's biggest queer Pop Party featuring multiple DJs for young, dance-crazy LGBTQ+ crowd. Recurring party event at various venues throughout Vienna.",https://www.queerbeat.at,Various locations,Vienna,Austria,48.2082,16.3738,,"Event-based, check website",,2025-12-09T10:00:00Z,2025-12-09T10:00:00Z
5480940b-84d8-4ea8-adae-c55b0f53a468,Ragnarhof,Rock club and concert venue hosting wide range of musical genres. Features outdoor seating and casual atmosphere. Note: Some sources indicate possible closure - verify status before visiting.,https://www.ragnarhof.at,Grundsteingasse 12,Vienna,Austria,48.2123,16.3267,,Open daily,,2025-12-09T10:00:00Z,2025-12-09T10:00:00Z
8559f9c9-5c7b-41f5-a43f-ff1feb368fde,Reigen Live,"Club, bar and restaurant in 14th district featuring over 100 live concerts annually, specializing in blues and jazz. Serves Viennese cuisine with concerts typically starting at 20:30, doors at 19:30. U4 subway stop in front.",https://www.reigen.at,Hadikgasse 62,Vienna,Austria,48.1867,16.3112,,"Daily 18:00-04:00, concert times vary",,2025-12-09T10:00:00Z,2025-12-09T10:00:00Z
630e909b-2e78-4576-a188-75431f80ab77,Rote Bar,Cultural bar within Volkstheater hosting queer and pop-discursive events. Fixed place in Viennese cultural life for years. Open daily evenings.,https://volkstheater.at,Neustiftgasse 1,Vienna,Austria,48.2056,16.3512,,Daily 18:30-01:00,,2025-12-09T10:00:00Z,2025-12-09T10:00:00Z
fc042cbf-d1f7-491d-a8e4-95fbb246c26e,Roxy,"Operating since 1991, one of Vienna's main venues for Soul, Funk, R'n'B and Hip-Hop. Hidden behind unassuming blue door in Wieden district. Open weekend nights and before holidays.",https://www.roxyclub.org,Faulmanngasse 2,Vienna,Austria,48.1989,16.3678,,"Fri, Sat and before holidays from 23:00",,2025-12-09T10:00:00Z,2025-12-09T10:00:00Z
4a2e52e0-2e76-45eb-91ef-2cc9ef54c918,Porgy & Bess,"Jazz and music club in Innere Stadt, one of the top ten jazz clubs in Europe. Features diverse program with live music daily. Office hours for tickets Monday-Friday 10:00-15:00.",https://www.porgy.at,Riemergasse 11,Vienna,Austria,48.2089,16.3789,,"Mon-Thu 16:00-00:00, Fri 16:00-02:00, Sat 17:00-02:00, Sun 17:00-00:00",,2025-12-09T10:00:00Z,2025-12-09T10:00:00Z
78fa2b8f-4cc6-4e82-b1d6-13c823db745a,Prater Dome,"Austria's largest disco at Riesenradplatz in Prater featuring three floors, twelve bars in six areas. Music ranges from techno, house, EDM, DnB, trance, R'n'B and hip hop to party classics from 1990s and 2000s. Entry from age 18.",https://praterdome.at,Riesenradplatz 7,Vienna,Austria,48.2167,16.3956,,"Fri, Sat and before holidays 23:00-06:00",,2025-12-09T10:00:00Z,2025-12-09T10:00:00Z
394020ff-b848-430e-bf07-59f5694aeb62,Sargfabrik,"Innovative housing project and cultural center built on site of former coffin factory in 14th district. Features cultural venue with alternative touch, restaurant, kindergarten, seminar rooms, and public bathhouse. Hosts concerts, theater and cultural events.",https://sargfabrik.at,Goldschlagstr. 169,Vienna,Austria,48.1945,16.3112,,Event-based schedule,,2025-12-09T10:00:00Z,2025-12-09T10:00:00Z
27539f18-ab51-41f8-a0bc-24463826acbd,Scotch Club,Club and bar at Parkring in first district. Note: Official website indicates closure ('Wir haben geschlossen') - verify current status before visiting.,https://www.scotch-club.at,Parkring 10,Vienna,Austria,48.2056,16.3789,,Potentially closed,,2025-12-09T10:00:00Z,2025-12-09T10:00:00Z
7fcf7793-0a49-4dd0-80f3-9f41952b4405,Susi,"Pub and bar near Messe-Prater metro station. Open evenings with food, beer, wine, and hard liquor. Features dine-in service and accepts credit cards.",,Ausstellungsstraße 15,Vienna,Austria,48.2167,16.4012,,Daily 20:00-05:00,,2025-12-09T10:00:00Z,2025-12-09T10:00:00Z
919478af-80a2-4dc9-928a-77a3d87283fe,Szene Wien,"Legendary well-established club in Simmering for over 25 years with 450 capacity. Features various music genres including Alternative, Indie, Rock/Pop, Blues, Folk, Avantgarde, Experimental, plus cabaret and theater. Indoor and outdoor bars with garden.",https://planet.tt/27-0-szene.html,Hauffgasse 26,Vienna,Austria,48.1834,16.4234,,"Event-based, accessible via U3 Enkplatz",,2025-12-09T10:00:00Z,2025-12-09T10:00:00Z
8eb05e61-3bdc-448e-82e2-db3b45ead05b,Tanzcafé Jenseits,"Small bar with legendary status in Sixth district featuring red brocade walls. Hosts cultural events, readings and daily changing DJ line-up. Music ranges from jazz, funk, soul to dance music on weekends. Very cozy atmosphere.",https://tanzcafejenseits.com,Nelkengasse 3,Vienna,Austria,48.1989,16.3512,,"Tue-Sat 20:00-04:00 (Jul-Aug: Wed-Sat), Sun-Mon Closed",,2025-12-09T10:00:00Z,2025-12-09T10:00:00Z
f424aa7f-94ac-44e9-a32a-ad9f79ecd092,The Circus,"Austria's biggest Gay Party celebrating 14+ years of unforgettable nights. Features international star DJs, sexy GoGo Boys and sassy Drag Queens with spectacular stage productions. Usually at Arena venue, larger events at Prater DOME. Physical shop in 7th district.",https://www.thecircus.at,Baumgasse 80,Vienna,Austria,48.1889,16.4123,,"Monthly Saturday events, check website",,2025-12-09T10:00:00Z,2025-12-09T10:00:00Z
cff881f0-66f0-4bf4-99f4-9151a64c6d67,The Flag,"Note: No specific venue found with this name in Vienna. This may be a former venue, alternate name, or require verification. Vienna's main LGBTQ+ venues include Felixx, Village Bar, Why Not, Mango Bar, and Sling.",,,Vienna,Austria,48.2082,16.3738,,,,2025-12-09T10:00:00Z,2025-12-09T10:00:00Z
5cb7c140-3bfd-4c6b-a867-0490050186e8,The Tube,"British Sports Bar owned by Barry Stevens in Landstraße (3rd district). Features three screens showing Football, Rugby, Cricket, Tennis, Darts via SKY Sports, Eurosport, Sport1, DAZN, BT Sports and BBC. Serves British and international beers, bar snacks. Cash only.",https://www.thetubestation.at,Löwengasse 51,Vienna,Austria,48.2034,16.3923,,Daily 18:00-00:00,,2025-12-09T10:00:00Z,2025-12-09T10:00:00Z
0c9a7036-0c2f-4aa3-8832-a2c8ac2d0fb6,Titanic,"Historic gay club established in 1982, especially popular with bears, leather lovers, and butch aesthetics. Underground club specializing in masculine-themed parties with bold, unapologetic atmosphere and body-positive environment. Hosts monthly Pitbull events.",https://titanic.at,Theobaldgasse 11,Vienna,Austria,48.1956,16.3545,,Event-based schedule,,2025-12-09T10:00:00Z,2025-12-09T10:00:00Z
bf2ab58f-aa12-4f95-b270-4572dac18c5d,Travel Shack,"Vibrant bar in Funfhaus district hosting daily events including Crazy Karaoke Nights (Tue, Fri, Sat) and Pub Quizzes (Wed). Features 4 rooms: play room with table football and billiard, american bar, dancing room and karaoke room.",https://travelshackvienna.com,Mariahilfer Gürtel 21,Vienna,Austria,48.1945,16.3345,,"Sun-Mon 16:00-02:00, Tue-Sat 16:00-04:00",,2025-12-09T10:00:00Z,2025-12-09T10:00:00Z
5c5b9ed3-fbbc-4391-bd1e-16751e18d7b4,Tunnel,"Restaurant and jazz club in Josefstadt, typical student meeting point. Open every evening with jam sessions on Mondays. Features live music and casual dining atmosphere.",https://www.tunnel-vienna-live.at,Florianigasse 39,Vienna,Austria,48.2123,16.3512,,"Mon 09:00-02:00, Tue-Sat 12:00-02:00, Sun 09:00-00:00",,2025-12-09T10:00:00Z,2025-12-09T10:00:00Z
79b8fc88-66c7-4e41-8b4e-1d66b65aaa9c,U4 Discotheque,"Cult venue opened in 1980, named after nearby U4 subway line. One of Vienna's most legendary nightlife venues that has hosted many international celebrities. Entry from age 18.",https://www.u4.at,Schönbrunner Str. 222-228,Vienna,Austria,48.1856,16.3378,,"Tue-Sat 22:00-06:00, Sun-Mon Closed",,2025-12-09T10:00:00Z,2025-12-09T10:00:00Z
516cdaf7-8280-4714-84ff-acd719c9b9a1,Vie i Pee,"Vienna's first true hip-hop club since 2015, hosting around 500 guests. Features soul, funk, jazz, R'n'B, rap and hip hop. Includes spacious 1400m² garden with lounge and wooden terrace. Accessible via U2 Messe-Prater.",https://vieipee.com,Waldsteingartenstraße 135,Vienna,Austria,48.2189,16.4123,,"Wed, Fri, Sat 23:00-06:00, Thu 20:00-04:00",,2025-12-09T10:00:00Z,2025-12-09T10:00:00Z
1d2a9364-151c-4f82-a911-fa48547d4b3c,Viper Room,Club in Landstraße focusing on underground metal scene with capacity of 300 people. Has garnered cult following over the years. Accessible via U3/U4 Wien Landstraße or U3 Rochusgasse.,https://www.viper-room.at,Landstraßer Hauptstr. 38,Vienna,Austria,48.2034,16.3867,,"Event-based, typically Fri from 22:00",,2025-12-09T10:00:00Z,2025-12-09T10:00:00Z
698c0462-3d74-4737-9186-66caa93258e9,Volksgarten Club Disco,"Disco in Vienna city centre in middle of beautiful garden. Accessible by U2 Museumsquartier, U2/U3 Volkstheater, or Tram 1, 2, D Burgring. Music mainly house, disco and party hits.",https://www.volksgarten.at/en,Burgring 1,Vienna,Austria,48.2067,16.3623,,Thu-Sat 22:00-06:00,,2025-12-09T10:00:00Z,2025-12-09T10:00:00Z
03ee5356-b658-4b91-8447-ebcb557cd235,Volksgarten Pavillon,Summer venue with 1950s architecture transforming from daytime café to evening party spot. Famous for 'Das Techno Café' every Tuesday night since 1996. Also hosts 'Fruity Hop' and 'The Birds & The Bees' themed evenings with queer crowds.,https://www.volksgarten-pavillon.at,Volksgarten,Vienna,Austria,48.2089,16.3612,,"Daily 11:00-02:00 (summer months, evenings only)",,2025-12-09T10:00:00Z,2025-12-09T10:00:00Z
764054e8-592a-407f-b8d6-9e8ccea344f2,Weberknecht,"Club, lounge, and live music venue with up to four floors featuring best parties in Vienna. Features 2 large lounge areas and two outdoor areas with garden. Music styles include alternative, rock, metal, techno, and karaoke.",https://weberknecht.net,Lerchenfelder Gürtel 49,Vienna,Austria,48.2156,16.3401,,"Mon-Wed 16:00-04:00, Thu-Sat 16:00-06:00, Sun 16:00-04:00",,2025-12-09T10:00:00Z,2025-12-09T10:00:00Z
7987b7a0-9451-44b8-8c1f-56ef8fb17d35,Wirr,Venue requiring additional research - web search limit reached. Located in Vienna.,,,Vienna,Austria,48.2082,16.3738,,,,2025-12-09T10:00:00Z,2025-12-09T10:00:00Z
5fe50ed0-cf16-463d-9452-92828573521e,ZWE,"Small, cozy jazz club with living room atmosphere in Leopoldstadt district. Features LIVE Jazz every night with concerts and jam sessions from local and international acts. Highly rated venue for jazz enthusiasts.",https://www.zwe.cc,Floßgasse 4,Vienna,Austria,48.2123,16.3889,,Daily 19:00-01:00,,2025-12-09T10:00:00Z,2025-12-09T10:00:00Z
cea47a16-efe4-49a3-8b94-c6f70daea960,Zoku,"Rooftop bar and restaurant on 7th floor offering 360-degree views over Vienna. Features Living Kitchen restaurant and Kindred Spirits bar. Serves breakfast, brunch, lunch and dinner with rooftop social spaces. Located next to Prater.",https://livezoku.com/vienna,Perspektivstr. 6,Vienna,Austria,48.2167,16.4012,,"Breakfast: Daily 07:00-10:00, Brunch: Sat-Sun 11:00-14:00, Bar: dusk till dawn",,2025-12-09T10:00:00Z,2025-12-09T10:00:00Z
a1d9991f-ac01-41ea-b8cc-80fc76895b83,City Bar,"Stylish and modern gay bar located across from legendary Why Not discotheque. Exudes fun, friendly vibe serving tasty cocktails, great music, and regular drink specials. Features daily happy hour 15:00-20:00. Classic Viennese style with chandeliers.",https://www.citybar.at,Tiefer Graben,Vienna,Austria,48.2108,16.3683,,"Daily, Happy Hour 15:00-20:00",,2025-12-09T10:00:00Z,2025-12-09T10:00:00Z
05533e36-2015-41f6-b487-2690b3252ca5,Red Carpet,"One of Vienna's busiest gay bars, voted best queer-mixed bar in Austria. Largest queer-mixed location in Vienna featuring bar, lounge, and dance floor. Note: Some sources indicate possible closure - verify status before visiting.",,Magdalenenstraße 2,Vienna,Austria,48.1989,16.3512,,"Status uncertain, verify before visiting",,2025-12-09T10:00:00Z,2025-12-09T10:00:00Z
215900b4-495d-451d-9844-cbc7ec1a7e9f,Club-U,Small student-favourite bar-club in Otto Wagner Pavilion Art Nouveau building at Karlsplatz. Wide range of events with music from Soul to Hip-Hop and Techno. Features wonderful outdoor seating area with regular DJs.,https://club-u.at,"Karlsplatz, Künstlerhauspassage",Vienna,Austria,48.2007,16.3723,,"Mon-Wed 09:00-01:00, Thu-Sun 09:00-04:00",,2025-12-09T10:00:00Z,2025-12-09T10:00:00Z
bb4da6e6-309e-4092-b85d-faca4a8c4801,Le Studio,"Film festival venue - specific information not found. Traditional Viennale (Vienna International Film Festival) venues include Gartenbaukino, Urania, Metro-Kino, Filmmuseum and Stadtkino. May be alternate name or smaller venue.",,,Vienna,Austria,48.2082,16.3738,,,,2025-12-09T10:00:00Z,2025-12-09T10:00:00Z
68854231-64cb-4602-b4df-93388fb885ee,Admiralkino,"Beautiful arthouse cinema in District 7 operating since 1913. Hosts film festivals, readings and special events. Features 'Doggy Day' first Thursday of each month (dogs attend free). Wheelchair accessible. Managed by Wiktoria Pelzer since January 2023.",https://www.admiralkino.at,Burggasse 119,Vienna,Austria,48.2056,16.3456,,Check website for screening times,,2025-12-09T10:00:00Z,2025-12-09T10:00:00Z
86b3cf89-8764-462b-beba-46c607d44743,Filmcasino,"One of Vienna's oldest cinemas established in 1911 with signature 50s-look. Art-house, indie, and international cinema venue. Hosts /slash Filmfestival, CineLatino, Identities Queer Film Festival and short film festivals. Located in Margareten district.",https://www.filmcasino.at,Margaretenstraße 78,Vienna,Austria,48.1945,16.3567,,Box office: Daily 18:00-21:00,,2025-12-09T10:00:00Z,2025-12-09T10:00:00Z
